SONATE                  
1 44400U 19038Q   24156.48254890  .00023482  00000+0  72002-3 0  9993
2 44400  97.7112 150.0157 0017891 144.8811 215.3614 15.33620007272137
LUCKY-7                 
1 44406U 19038W   24157.50449447  .00041846  00000+0  93484-3 0  9998
2 44406  97.7016 155.0146 0015873 126.9101 233.3602 15.43274758272563
JAISAT-1                
1 44419U 19038F   24157.29260768  .01640758  19874-2  18913-2 0  9998
2 44419  97.6551 166.1495 0008533 177.4379 182.6949 16.09395770273329
DUCHIFAT-3              
1 44854U 19089C   24157.27209959  .00018132  00000+0  92468-3 0  9990
2 44854  36.9559 121.3421 0006784 329.2193  30.8156 15.16040491246390
M2 PATHFINDER           
1 45727U 20037E   24156.95489817  .00004751  00000+0  41668-3 0  9990
2 45727  97.7749 333.4555 0011916 160.3639 199.8044 14.97060817214111
NETSAT-4                
1 46504U 20068U   24156.45689411  .00012308  00000+0  66215-3 0  9997
2 46504  97.8049 113.2549 0011725  54.5990 305.6335 15.14952348202248
NETSAT-3                
1 46505U 20068V   24157.36165473  .00011523  00000+0  62975-3 0  9993
2 46505  97.8024 113.7062 0011034  59.2237 301.0079 15.14415964202373
NETSAT-1                
1 46506U 20068W   24157.13418489  .00009699  00000+0  55530-3 0  9997
2 46506  97.8049 112.9746 0010040  69.4394 290.7912 15.12807732202303
NETSAT-2                
1 46507U 20068X   24156.67136713  .00013100  00000+0  70651-3 0  9996
2 46507  97.8036 113.1113 0009652  75.7038 284.5264 15.14867515202222
WILDTRACKCUBE-SIMBA     
1 47941U 21022K   24157.53067326  .00016157  00000+0  72567-3 0  9992
2 47941  97.4629  54.4043 0015704 177.5557 182.5758 15.21130481176699
BEESAT-6                
1 47957U 21022AB  24156.68757891  .00248484  00000+0  23767-2 0  9994
2 47957  97.4368  64.3226 0012181 130.5983 229.6339 15.65837155177102
SMOG-1                  
1 47964U 21022AJ  24157.27526153  .00179228  00000+0  19316-2 0  9997
2 47964  97.4635  68.0443 0012646 124.4167 235.8288 15.63009972176377
BCCSAT-1                
1 48041U 21022AK  24157.49019422  .00085176  00000+0  16581-2 0  9993
2 48041  97.4644  64.2544 0011029 126.2865 233.9405 15.47199614176121
BEESAT-5                
1 48083U 21022AM  24157.00738183  .00798402  00000+0  30061-2 0  9990
2 48083  97.3990  66.2180 0012657 134.9065 225.3235 15.85795318176440
BEESAT-7                
1 48084U 21022AN  24156.49544571  .00114236  00000+0  15356-2 0  9996
2 48084  97.4478  64.1336 0011354 139.1905 221.0203 15.57433132175782
BEESAT-8                
1 48085U 21022AP  24157.20506562  .00029025  00000+0  93802-3 0  9999
2 48085  97.4785  59.1641 0013460 157.3830 202.8007 15.31963077176043
LEDSAT                  
1 49069U 21073D   24157.17574946  .00019598  00000+0  79708-3 0  9998
2 49069  97.4386 228.3896 0018034 328.3881  31.6272 15.24419679154621
SITRO-AIS 5 (KATYS)     
1 57176U 23091L   24157.48271175  .00010459  00000+0  67546-3 0  9994
2 57176  97.6138 209.7665 0018676 157.9058 202.2979 15.08286691 51733
SITRO-AIS 6 (CHIRKIN)   
1 57192U 23091AC  24157.46833314  .00009947  00000+0  64167-3 0  9995
2 57192  97.6135 209.7764 0018591 157.1881 203.0177 15.08346423 51739
SITRO-AIS 8 (ANOKHIN)   
1 57193U 23091AD  24157.50499341  .00010771  00000+0  68886-3 0  9998
2 57193  97.6124 209.8736 0018187 159.1134 201.0841 15.08645334 51742
SITRO-AIS 7 (FARTUSHNIY)
1 57194U 23091AE  24157.47300590  .00009613  00000+0  62105-3 0  9993
2 57194  97.6135 209.7640 0018416 157.7504 202.4527 15.08301780 51737
SITRO-AIS 10 (BURDAEV)  
1 57199U 23091AK  24157.48925846  .00011898  00000+0  72520-3 0  9996
2 57199  97.6149 210.7245 0013572 146.6678 213.5409 15.10440872 51794
SITRO-AIS 9 (SHCHUKIN)  
1 57201U 23091AM  24157.48746528  .00011855  00000+0  72289-3 0  9993
2 57201  97.6144 210.7045 0013543 146.4724 213.7365 15.10427054 51799
SITRO-AIS 12 (SMIRENNIY)
1 57204U 23091AQ  24157.51765719  .00011418  00000+0  69289-3 0  9994
2 57204  97.6146 210.8609 0013568 141.2767 218.9437 15.10613553 51808
SITRO-AIS 11 (SHEFFER)  
1 57208U 23091AU  24157.50397426  .00011687  00000+0  70755-3 0  9991
2 57208  97.6145 210.8684 0013337 141.9198 218.2977 15.10695910 51802
SITRO-AIS 29            
1 59052U 24039B   24157.50001931  .00025005  00000+0  93174-3 0  9995
2 59052  97.3912 119.6022 0015254 253.9736 105.9823 15.27329596 14818
SITRO-AIS 30            
1 59053U 24039C   24157.49939044  .00024916  00000+0  92904-3 0  9999
2 59053  97.3910 119.5997 0015366 255.0304 104.9234 15.27307240 14801
SITRO-AIS 31            
1 59054U 24039D   24157.49360227  .00025178  00000+0  93569-3 0  9990
2 59054  97.3911 119.6077 0015245 254.8734 105.0819 15.27417054 14821
SITRO-AIS 33            
1 59055U 24039E   24157.48667185  .00024443  00000+0  90506-3 0  9995
2 59055  97.3914 119.6205 0014929 255.6875 104.2707 15.27548048 14815
SITRO-AIS 35            
1 59056U 24039F   24157.48342478  .00024023  00000+0  88864-3 0  9999
2 59056  97.3912 119.6230 0014736 255.7755 104.1847 15.27586798 14814
SITRO-AIS 32            
1 59057U 24039G   24157.48848372  .00024484  00000+0  90907-3 0  9996
2 59057  97.3913 119.6174 0014792 255.9908 103.9687 15.27458345 14812
SITRO-AIS 34            
1 59058U 24039H   24157.48585768  .00024612  00000+0  91193-3 0  9995
2 59058  97.3914 119.6225 0014918 255.9225 104.0356 15.27524469 14819
SITRO-AIS 36            
1 59059U 24039J   24157.47963519  .00022234  00000+0  82159-3 0  9999
2 59059  97.3911 119.6285 0014464 255.8390 104.1242 15.27640673 14812
SITRO-AIS 49            
1 59060U 24039K   24157.47940372  .00024241  00000+0  89600-3 0  9991
2 59060  97.3912 119.6285 0014528 255.4896 104.4732 15.27612853 14819
SITRO-AIS 50            
1 59061U 24039L   24157.47259999  .00024472  00000+0  89995-3 0  9993
2 59061  97.3909 119.6370 0014469 255.6661 104.2972 15.27780375 14816
SITRO-AIS 51            
1 59062U 24039M   24157.47190628  .00024340  00000+0  89586-3 0  9997
2 59062  97.3911 119.6385 0014455 255.4956 104.4680 15.27752869 14811
SITRO-AIS 52            
1 59063U 24039N   24157.53227457  .00024872  00000+0  91297-3 0  9998
2 59063  97.3912 119.7107 0014313 255.1366 104.8289 15.27839227 14825
SITRO-AIS 25            
1 59066U 24039R   24157.46797119  .00010464  00000+0  99930-3 0  9994
2 59066  95.4037  89.4234 0173227  24.1229 336.7980 14.82662301 14372
SITRO-AIS 26            
1 59067U 24039S   24157.53485997  .00010375  00000+0  99155-3 0  9991
2 59067  95.4037  89.4690 0173089  23.9224 336.9916 14.82650422 14380
SITRO-AIS 27            
1 59068U 24039T   24157.52691303  .00010540  00000+0  10042-2 0  9992
2 59068  95.4039  89.4790 0172772  23.7993 337.1095 14.82800086 14387
SITRO-AIS 28            
1 59071U 24039U   24157.52467682  .00010320  00000+0  98278-3 0  9991
2 59071  95.4040  89.4820 0172610  23.7984 337.1096 14.82837354 14387
BEIJING 1               
1 28890U 05043A   24157.52699224  .00000668  00000+0  14155-3 0  9995
2 28890  98.1988 280.4697 0016193  83.7588 276.5458 14.62340014992199
HUANJING 1A (HJ-1A)     
1 33320U 08041A   24157.46684984  .00002659  00000+0  35738-3 0  9992
2 33320  97.6304 165.0593 0021612  52.8247 307.4935 14.79906310848620
HUANJING 1B (HJ-1B)     
1 33321U 08041B   24157.47333128  .00001949  00000+0  25945-3 0  9995
2 33321  97.6263 169.6048 0040044  94.3249 266.2541 14.80217299848643
YAOGAN-4                
1 33446U 08061A   24157.52878607  .00000759  00000+0  10761-3 0  9995
2 33446  97.8795  89.6297 0014131 329.4217  30.6170 14.79784665835837
DEIMOS-1                
1 35681U 09041A   24157.51410624  .00001038  00000+0  16770-3 0  9994
2 35681  97.6799 340.0632 0002796  77.9407 282.2116 14.73312130797592
UK-DMC 2                
1 35683U 09041C   24157.52181302  .00001537  00000+0  24507-3 0  9996
2 35683  97.7799 305.6488 0001582  97.7617 262.3771 14.73296946797295
DMC3-FM1                
1 40715U 15032A   24157.49711249  .00001234  00000+0  15568-3 0  9991
2 40715  97.7518  36.7539 0005247 347.1614  12.9466 14.83664492479840
DMC3-FM2                
1 40716U 15032B   24157.52002919  .00001268  00000+0  15981-3 0  9999
2 40716  97.7570  37.8376 0007232 347.5931  12.5104 14.83670703479849
DMC3-FM3                
1 40717U 15032C   24157.47682709  .00001008  00000+0  12850-3 0  9999
2 40717  97.7619  39.0648 0008600 342.4314  17.6601 14.83605663479840
NOAA 15                 
1 25338U 98030A   24157.52384621  .00000413  00000+0  18876-3 0  9991
2 25338  98.5688 184.8942 0010278   6.1655 353.9651 14.26594603355773
DMSP 5D-3 F16 (USA 172) 
1 28054U 03048A   24157.49250157  .00000190  00000+0  12389-3 0  9991
2 28054  99.0203 163.8516 0008463  86.5869  66.9659 14.14032989 64627
NOAA 18                 
1 28654U 05018A   24157.45539343  .00000347  00000+0  20891-3 0  9990
2 28654  98.8744 234.5175 0015371  97.0000 263.2921 14.13223226981602
METEOSAT-9 (MSG-2)      
1 28912U 05049B   24156.85517789  .00000124  00000+0  00000+0 0  9993
2 28912   7.6596  60.9763 0001218 351.8617 194.4841  1.00272025 67600
EWS-G1 (GOES 13)        
1 29155U 06018A   24157.11707514 -.00000100  00000+0  00000+0 0  9992
2 29155   2.5957  85.4271 0082483 254.9218 240.1137  0.99104858 66043
DMSP 5D-3 F17 (USA 191) 
1 29522U 06050A   24157.51491906  .00000207  00000+0  13073-3 0  9990
2 29522  98.7435 168.3325 0010494  19.7791 340.3788 14.14482779907543
FENGYUN 3A              
1 32958U 08026A   24157.46970058  .00000252  00000+0  14092-3 0  9998
2 32958  98.6037 104.9279 0009859 104.2885 255.9387 14.19098658830295
FENGYUN 2E              
1 33463U 08066A   24156.91799069 -.00000127  00000+0  00000+0 0  9996
2 33463   7.5581  60.6814 0002191  36.9749 231.0233  0.99118913 56649
